[{"OBJECT_NAME":"KUIPER-00008","OBJECT_ID":"2025-088A","EPOCH":"2026-03-02T20:00:01.999008","MEAN_MOTION":14.95850235,"ECCENTRICITY":0.0009545,"INCLINATION":51.8913,"RA_OF_ASC_NODE":118.2898,"ARG_OF_PERICENTER":72.845,"MEAN_ANOMALY":204.3139,"EPHEMERIS_TYPE":0,"CLASSIFICATION_TYPE":"U","NORAD_CAT_ID":63724,"ELEMENT_SET_NO":999,"REV_AT_EPOCH":511,"BSTAR":-0.14265,"MEAN_MOTION_DOT":-0.01489976,"MEAN_MOTION_DDOT":0},{"OBJECT_NAME":"KUIPER-00009","OBJECT_ID":"2025-088B","EPOCH":"2026-03-02T14:59:36.932928","MEAN_MOTION":14.79970879,"ECCENTRICITY":0.0008756,"INCLINATION":51.9029,"RA_OF_ASC_NODE":137.8783,"ARG_OF_PERICENTER":75.664,"MEAN_ANOMALY":284.5294,"EPHEMERIS_TYPE":0,"CLASSIFICATION_TYPE":"U","NORAD_CAT_ID":63725,"ELEMENT_SET_NO":999,"REV_AT_EPOCH":4673,"BSTAR":-0.00051331,"MEAN_MOTION_DOT":-4.14e-5,"MEAN_MOTION_DDOT":0},{"OBJECT_NAME":"KUIPER-00010","OBJECT_ID":"2025-088C","EPOCH":"2026-03-02T11:33:59.173632","MEAN_MOTION":14.7994418,"ECCENTRICITY":5.23e-5,"INCLINATION":51.9018,"RA_OF_ASC_NODE":114.9654,"ARG_OF_PERICENTER":71.4953,"MEAN_ANOMALY":288.6066,"EPHEMERIS_TYPE":0,"CLASSIFICATION_TYPE":"U","NORAD_CAT_ID":63726,"ELEMENT_SET_NO":999,"REV_AT_EPOCH":4666,"BSTAR":0.0003202,"MEAN_MOTION_DOT":2.221e-5,"MEAN_MOTION_DDOT":0},{"OBJECT_NAME":"KUIPER-00011","OBJECT_ID":"2025-088D","EPOCH":"2026-03-02T13:47:49.529184","MEAN_MOTION":14.80017791,"ECCENTRICITY":3.93e-5,"INCLINATION":51.8995,"RA_OF_ASC_NODE":122.1167,"ARG_OF_PERICENTER":64.016,"MEAN_ANOMALY":296.0842,"EPHEMERIS_TYPE":0,"CLASSIFICATION_TYPE":"U","NORAD_CAT_ID":63727,"ELEMENT_SET_NO":999,"REV_AT_EPOCH":4670,"BSTAR":0.00068427,"MEAN_MOTION_DOT":5.01e-5,"MEAN_MOTION_DDOT":0},{"OBJECT_NAME":"KUIPER-00012","OBJECT_ID":"2025-088E","EPOCH":"2026-03-02T20:00:01.999008","MEAN_MOTION":14.80670491,"ECCENTRICITY":0.0001256,"INCLINATION":51.9,"RA_OF_ASC_NODE":105.9013,"ARG_OF_PERICENTER":278.9612,"MEAN_ANOMALY":109.2514,"EPHEMERIS_TYPE":0,"CLASSIFICATION_TYPE":"U","NORAD_CAT_ID":63728,"ELEMENT_SET_NO":999,"REV_AT_EPOCH":570,"BSTAR":-0.006233,"MEAN_MOTION_DOT":-0.00048238,"MEAN_MOTION_DDOT":0},{"OBJECT_NAME":"KUIPER-00013","OBJECT_ID":"2025-088F","EPOCH":"2026-03-02T14:58:07.618656","MEAN_MOTION":14.79831205,"ECCENTRICITY":0.0002958,"INCLINATION":51.9009,"RA_OF_ASC_NODE":139.3406,"ARG_OF_PERICENTER":24.6745,"MEAN_ANOMALY":335.4358,"EPHEMERIS_TYPE":0,"CLASSIFICATION_TYPE":"U","NORAD_CAT_ID":63729,"ELEMENT_SET_NO":999,"REV_AT_EPOCH":4652,"BSTAR":0.00048345,"MEAN_MOTION_DOT":3.457e-5,"MEAN_MOTION_DDOT":0},{"OBJECT_NAME":"KUIPER-00014","OBJECT_ID":"2025-088G","EPOCH":"2026-03-02T13:18:30.750048","MEAN_MOTION":14.79969732,"ECCENTRICITY":3.66e-5,"INCLINATION":51.901,"RA_OF_ASC_NODE":140.6183,"ARG_OF_PERICENTER":23.4916,"MEAN_ANOMALY":336.6063,"EPHEMERIS_TYPE":0,"CLASSIFICATION_TYPE":"U","NORAD_CAT_ID":63730,"ELEMENT_SET_NO":999,"REV_AT_EPOCH":4631,"BSTAR":0.00092376,"MEAN_MOTION_DOT":6.834e-5,"MEAN_MOTION_DDOT":0},{"OBJECT_NAME":"KUIPER-00015","OBJECT_ID":"2025-088H","EPOCH":"2026-03-02T15:35:53.264256","MEAN_MOTION":14.83560321,"ECCENTRICITY":0.000971,"INCLINATION":51.899,"RA_OF_ASC_NODE":149.6456,"ARG_OF_PERICENTER":52.1816,"MEAN_ANOMALY":308.0025,"EPHEMERIS_TYPE":0,"CLASSIFICATION_TYPE":"U","NORAD_CAT_ID":63731,"ELEMENT_SET_NO":999,"REV_AT_EPOCH":4665,"BSTAR":0.00095237,"MEAN_MOTION_DOT":7.705e-5,"MEAN_MOTION_DDOT":0},{"OBJECT_NAME":"KUIPER-00016","OBJECT_ID":"2025-088J","EPOCH":"2026-03-02T05:08:21.182784","MEAN_MOTION":14.80038652,"ECCENTRICITY":0.00069375,"INCLINATION":51.9005,"RA_OF_ASC_NODE":144.6544,"ARG_OF_PERICENTER":49.5476,"MEAN_ANOMALY":310.609,"EPHEMERIS_TYPE":0,"CLASSIFICATION_TYPE":"U","NORAD_CAT_ID":63732,"ELEMENT_SET_NO":999,"REV_AT_EPOCH":4622,"BSTAR":0.0007857071,"MEAN_MOTION_DOT":5.789e-5,"MEAN_MOTION_DDOT":0},{"OBJECT_NAME":"KUIPER-00018","OBJECT_ID":"2025-088K","EPOCH":"2026-03-02T20:00:01.999008","MEAN_MOTION":14.80103383,"ECCENTRICITY":0.0004659,"INCLINATION":51.9013,"RA_OF_ASC_NODE":130.886,"ARG_OF_PERICENTER":78.6749,"MEAN_ANOMALY":275.3479,"EPHEMERIS_TYPE":0,"CLASSIFICATION_TYPE":"U","NORAD_CAT_ID":63733,"ELEMENT_SET_NO":999,"REV_AT_EPOCH":271,"BSTAR":-0.0026173,"MEAN_MOTION_DOT":-0.000202,"MEAN_MOTION_DDOT":0},{"OBJECT_NAME":"KUIPER-00019","OBJECT_ID":"2025-088L","EPOCH":"2026-03-02T15:11:27.161664","MEAN_MOTION":14.79933183,"ECCENTRICITY":6.74e-5,"INCLINATION":51.8998,"RA_OF_ASC_NODE":130.3009,"ARG_OF_PERICENTER":98.9206,"MEAN_ANOMALY":261.1833,"EPHEMERIS_TYPE":0,"CLASSIFICATION_TYPE":"U","NORAD_CAT_ID":63734,"ELEMENT_SET_NO":999,"REV_AT_EPOCH":4646,"BSTAR":-9.461e-6,"MEAN_MOTION_DOT":-2.93e-6,"MEAN_MOTION_DDOT":0},{"OBJECT_NAME":"KUIPER-00020","OBJECT_ID":"2025-088M","EPOCH":"2026-03-02T15:05:59.956224","MEAN_MOTION":14.79876089,"ECCENTRICITY":0.0006687,"INCLINATION":51.9012,"RA_OF_ASC_NODE":134.3098,"ARG_OF_PERICENTER":62.9051,"MEAN_ANOMALY":297.2593,"EPHEMERIS_TYPE":0,"CLASSIFICATION_TYPE":"U","NORAD_CAT_ID":63735,"ELEMENT_SET_NO":999,"REV_AT_EPOCH":4661,"BSTAR":0.00035819,"MEAN_MOTION_DOT":2.506e-5,"MEAN_MOTION_DDOT":0},{"OBJECT_NAME":"KUIPER-00021","OBJECT_ID":"2025-088N","EPOCH":"2026-03-02T11:49:15.364416","MEAN_MOTION":14.79955913,"ECCENTRICITY":0.00033549,"INCLINATION":51.9001,"RA_OF_ASC_NODE":135.9098,"ARG_OF_PERICENTER":67.9058,"MEAN_ANOMALY":292.2261,"EPHEMERIS_TYPE":0,"CLASSIFICATION_TYPE":"U","NORAD_CAT_ID":63736,"ELEMENT_SET_NO":999,"REV_AT_EPOCH":4641,"BSTAR":0.0028484825,"MEAN_MOTION_DOT":0.00021576,"MEAN_MOTION_DDOT":0},{"OBJECT_NAME":"KUIPER-00023","OBJECT_ID":"2025-088P","EPOCH":"2026-03-02T11:47:36.013920","MEAN_MOTION":14.79936261,"ECCENTRICITY":0.00084801,"INCLINATION":51.8995,"RA_OF_ASC_NODE":137.375,"ARG_OF_PERICENTER":77.115,"MEAN_ANOMALY":283.0759,"EPHEMERIS_TYPE":0,"CLASSIFICATION_TYPE":"U","NORAD_CAT_ID":63737,"ELEMENT_SET_NO":999,"REV_AT_EPOCH":4669,"BSTAR":-0.00095828803,"MEAN_MOTION_DOT":-7.526e-5,"MEAN_MOTION_DDOT":0},{"OBJECT_NAME":"KUIPER-00024","OBJECT_ID":"2025-088Q","EPOCH":"2026-03-02T10:29:50.972064","MEAN_MOTION":14.79926171,"ECCENTRICITY":5.938e-5,"INCLINATION":51.9027,"RA_OF_ASC_NODE":125.1819,"ARG_OF_PERICENTER":84.7559,"MEAN_ANOMALY":275.3471,"EPHEMERIS_TYPE":0,"CLASSIFICATION_TYPE":"U","NORAD_CAT_ID":63738,"ELEMENT_SET_NO":999,"REV_AT_EPOCH":4698,"BSTAR":4.2576314e-5,"MEAN_MOTION_DOT":1.03e-6,"MEAN_MOTION_DDOT":0},{"OBJECT_NAME":"KUIPER-00025","OBJECT_ID":"2025-088R","EPOCH":"2026-03-02T20:00:01.999008","MEAN_MOTION":14.83456075,"ECCENTRICITY":2.61e-5,"INCLINATION":51.9019,"RA_OF_ASC_NODE":131.8416,"ARG_OF_PERICENTER":35.5137,"MEAN_ANOMALY":18.037,"EPHEMERIS_TYPE":0,"CLASSIFICATION_TYPE":"U","NORAD_CAT_ID":63739,"ELEMENT_SET_NO":999,"REV_AT_EPOCH":435,"BSTAR":-0.0040122,"MEAN_MOTION_DOT":-0.00033348,"MEAN_MOTION_DDOT":0},{"OBJECT_NAME":"KUIPER-00027","OBJECT_ID":"2025-088S","EPOCH":"2026-03-02T10:25:54.088320","MEAN_MOTION":14.79923531,"ECCENTRICITY":8.31e-5,"INCLINATION":51.9022,"RA_OF_ASC_NODE":127.6665,"ARG_OF_PERICENTER":87.646,"MEAN_ANOMALY":272.4598,"EPHEMERIS_TYPE":0,"CLASSIFICATION_TYPE":"U","NORAD_CAT_ID":63740,"ELEMENT_SET_NO":999,"REV_AT_EPOCH":4654,"BSTAR":-0.001073911,"MEAN_MOTION_DOT":-8.396e-5,"MEAN_MOTION_DDOT":0}]
